0 COSMOS 2251 DEB
1 35704U 93036APZ 13285.26853216  .00026860  00000-0  18249-2 0  4771
2 35704 073.9921 253.5400 0078790 117.9705 243.2191 15.03714629245317
0 COSMOS 2251 DEB
1 35704U 93036APZ 13292.19732816  .00056685  00000-0  37900-2 0  4787
2 35704 073.9334 239.2453 0073191 092.7206 330.7360 15.04473350246359
0 COSMOS 2251 DEB
1 35704U 93036APZ 13293.18319740  .00047139  00000-0  31486-2 0  4792
2 35704 073.9402 237.2226 0073487 091.7388 269.2315 15.04542229246504
0 COSMOS 2251 DEB
1 35704U 93036APZ 13294.18056930  .00051693  00000-0  34304-2 0  4806
2 35704 073.9457 235.1634 0074728 094.4041 266.7786 15.04680676246658
0 COSMOS 2251 DEB
1 35704U 93036APZ 13295.51023233  .00050836  00000-0  33720-2 0  4814
2 35704 073.9328 232.4177 0072824 085.2138 275.7373 15.04816328246856
